OBJECT_NAME,OBJECT_ID,EPOCH,MEAN_MOTION,ECCENTRICITY,INCLINATION,RA_OF_ASC_NODE,ARG_OF_PERICENTER,MEAN_ANOMALY,EPHEMERIS_TYPE,CLASSIFICATION_TYPE,NORAD_CAT_ID,ELEMENT_SET_NO,REV_AT_EPOCH,BSTAR,MEAN_MOTION_DOT,MEAN_MOTION_DDOT
STARLINK-32741,2025-004R,2026-06-06T01:47:54.423744,15.27598243,.00008893,43.0035,77.4610,256.4810,103.5943,0,U,62526,999,8001,.81730237E-3,.22309E-3,0
STARLINK-32754,2025-004S,2026-06-06T01:28:42.352320,15.27595552,.00025847,43.0013,80.8203,276.3050,83.7508,0,U,62527,999,7902,.8845474E-3,.24171E-3,0
STARLINK-32786,2025-004T,2026-06-06T02:14:46.538016,15.27603351,.00004508,42.9988,80.2002,190.4915,169.5927,0,U,62528,999,7903,.83718541E-3,.22863E-3,0
STARLINK-32789,2025-004U,2026-06-06T01:37:57.411840,15.27603152,.00011466,42.9992,80.8635,267.7282,92.3438,0,U,62529,999,7997,.10481579E-2,.28714E-3,0
STARLINK-32791,2025-004V,2026-06-06T01:17:36.218688,15.27605233,.00018346,43.0028,80.7596,271.3070,88.7572,0,U,62530,999,7997,.99910021E-3,.27354E-3,0
STARLINK-32785,2025-004W,2026-06-06T01:49:03.045216,15.27623041,.00008625,43.0009,80.9344,175.1448,184.9412,0,U,62531,999,7997,.11718903E-2,.32169E-3,0
STARLINK-11538 [DTC],2025-006A,2026-06-05T19:09:25.394976,15.70887165,.00019266,42.9998,328.4491,271.5536,88.5111,0,U,62554,999,8046,.14098568E-2,.184904E-2,0
STARLINK-11534 [DTC],2025-006B,2026-06-05T14:42:23.597568,15.70930158,.00019563,42.9993,329.6391,264.4326,95.6319,0,U,62555,999,8043,.14404561E-2,.189372E-2,0
STARLINK-11515 [DTC],2025-006C,2026-06-05T12:40:26.282208,15.70900340,.00013982,42.9981,330.7475,271.7184,88.3523,0,U,62556,999,8041,.14962517E-2,.196649E-2,0
STARLINK-11478 [DTC],2025-006D,2026-06-05T04:32:03.312672,15.70924064,.00018794,42.9980,332.4927,300.2828,59.7853,0,U,62557,999,8036,.19899782E-2,.264105E-2,0
STARLINK-11358 [DTC],2025-006E,2026-06-05T22:43:07.554144,15.71104240,.00014977,42.9970,327.8527,283.9758,76.0944,0,U,62558,999,8048,.20787976E-2,.278498E-2,0
STARLINK-11517 [DTC],2025-006F,2026-06-05T18:23:44.126880,15.70868261,.00021228,43.0006,329.0841,274.7350,85.3276,0,U,62559,999,8045,.81186373E-3,.105181E-2,0
STARLINK-11519 [DTC],2025-006G,2026-06-05T05:11:35.872224,15.70851709,.0001266,42.9988,332.7151,304.6358,55.4391,0,U,62560,999,8036,.14388E-2,.18851E-2,0
STARLINK-11451 [DTC],2025-006H,2026-06-04T17:28:11.542368,15.70889042,.00022709,43.0006,335.0405,254.2971,105.7646,0,U,62561,999,8029,.10032078E-2,.130593E-2,0
STARLINK-11530 [DTC],2025-006J,2026-06-05T05:10:16.970880,15.70948622,.0001673,43.0003,332.7025,288.2845,71.7841,0,U,62562,999,8036,.19862E-2,.263867E-2,0
STARLINK-11536 [DTC],2025-006K,2026-06-05T16:29:14.285760,15.71398797,.00034816,43.0010,329.3362,231.6577,128.3979,0,U,62563,999,8044,.14185772E-2,.190256E-2,0
STARLINK-11540 [DTC],2025-006L,2026-06-05T20:02:57.790176,15.70890413,.00018646,42.9989,328.7453,308.5967,51.4733,0,U,62564,999,8046,.13542242E-2,.177454E-2,0
STARLINK-11523 [DTC],2025-006M,2026-06-05T04:54:59.610240,15.70844640,.0001154,42.9989,332.6176,298.0693,62.0057,0,U,62565,999,8036,.14937E-2,.195836E-2,0
STARLINK-11525 [DTC],2025-006N,2026-06-05T20:33:33.123168,15.70801920,.00017156,42.9981,328.9117,278.7675,81.2999,0,U,62566,999,8046,.41248482E-3,.52731E-3,0
STARLINK-32752,2025-006P,2026-06-05T02:59:00.345120,15.27579470,.0001499,43.0011,158.8839,281.2960,78.7723,0,U,62567,999,7823,.64016733E-3,.17395E-3,0
STARLINK-32760,2025-006Q,2026-06-05T01:32:14.723520,15.27675999,.00023273,43.0023,159.2759,251.9657,108.0941,0,U,62568,999,7822,.11524991E-2,.31683E-3,0
STARLINK-32715,2025-006R,2026-06-05T01:45:12.968064,15.27654033,.00014247,43.0011,159.3535,280.9587,79.1105,0,U,62569,999,7822,.78721322E-3,.21512E-3,0
STARLINK-32764,2025-006S,2026-06-05T06:38:46.478112,15.27611447,.0002335,43.0016,158.2998,277.5853,82.4733,0,U,62570,999,7825,.92356E-3,.25265E-3,0
STARLINK-32773,2025-006T,2026-06-05T07:15:34.170048,15.27596512,.0000246,42.9984,157.6290,233.4958,126.5871,0,U,62571,999,7826,.5684E-3,.1542E-3,0
STARLINK-32750,2025-006U,2026-06-05T06:49:39.338976,15.27558828,.0001383,42.9999,157.4884,273.3400,86.7294,0,U,62572,999,7826,.59455E-3,.16124E-3,0
STARLINK-32771,2025-006V,2026-06-04T12:14:35.431584,15.27665001,.00010179,42.9978,162.0011,265.1121,94.9614,0,U,62573,999,7814,.10740837E-2,.29489E-3,0
STARLINK-32766,2025-006W,2026-06-05T07:30:22.391424,15.27584037,.0000931,43.0014,157.7098,254.1877,105.8872,0,U,62574,999,7826,.47052942E-3,.1271E-3,0
STARLINK-11547 [DTC],2025-008A,2026-06-06T03:28:45.422688,15.71287999,.00023236,42.9990,313.1953,355.0493,5.0351,0,U,62587,999,8002,.30838248E-2,.424012E-2,0
STARLINK-11185 [DTC],2025-008B,2026-06-05T19:05:04.349472,15.70857729,.00017992,42.9997,314.8560,273.1899,86.8763,0,U,62588,999,7997,.87430214E-3,.113364E-2,0
STARLINK-11513 [DTC],2025-008C,2026-06-06T03:13:26.750496,15.70987760,.00018808,42.9976,313.1078,297.7543,62.3134,0,U,62589,999,8002,.26981822E-2,.363595E-2,0
STARLINK-11397 [DTC],2025-008D,2026-06-04T18:17:10.543776,15.70874536,.0002526,43.0001,320.8621,295.4463,64.6143,0,U,62590,999,8092,.66402E-3,.85769E-3,0
STARLINK-11420 [DTC],2025-008E,2026-06-04T16:15:12.841344,15.70873306,.00019545,43.0001,321.9647,260.0294,100.0353,0,U,62591,999,8097,.5564677E-3,.71675E-3,0
STARLINK-11415 [DTC],2025-008F,2026-06-06T03:44:02.406624,15.71242682,.00028491,42.9973,313.2831,332.9214,27.1505,0,U,62592,999,8113,.26339329E-2,.358534E-2,0
STARLINK-11413 [DTC],2025-008G,2026-06-06T03:36:23.496480,15.71243859,.0002646,42.9955,313.2387,322.6995,37.3689,0,U,62593,999,8109,.26367294E-2,.358948E-2,0
STARLINK-11416 [DTC],2025-008H,2026-06-06T06:00:02.000160,15.86939990,.0012605,42.9895,307.6267,316.8276,68.6814,0,U,62594,999,596,.12325432E-2,.343008E-2,0
STARLINK-11535 [DTC],2025-008J,2026-06-05T03:34:11.055648,15.70903771,.00016834,42.9994,318.5937,296.6730,63.3965,0,U,62595,999,8089,.18464367E-2,.244221E-2,0
STARLINK-11521 [DTC],2025-008L,2026-06-05T03:57:07.632288,15.70888005,.0002156,42.9996,318.7300,291.4717,68.5921,0,U,62597,999,8104,.15571E-2,.204764E-2,0
STARLINK-11258 [DTC],2025-008M,2026-06-06T02:58:08.169888,15.71036659,.00048172,43.0000,313.0210,266.4032,93.6285,0,U,62598,999,8119,.1840196E-2,.244861E-2,0
STARLINK-11529 [DTC],2025-008N,2026-06-06T03:05:47.358240,15.71030836,.00036459,42.9996,313.0655,271.8969,88.1481,0,U,62599,999,8120,.1782653E-2,.236855E-2,0
STARLINK-32747,2025-008P,2026-06-06T00:00:02.999808,15.27581569,.00011502,42.9992,139.5242,260.4106,202.8379,0,U,62600,999,587,.49315026E-3,.13334E-3,0
STARLINK-32767,2025-008Q,2026-06-05T16:24:37.919808,15.27616340,.00015339,43.0008,140.8274,266.8745,93.1931,0,U,62601,999,7908,.59563134E-3,.16183E-3,0
STARLINK-32769,2025-008R,2026-06-05T05:31:05.330784,15.27603593,.0001155,43.0013,143.4411,280.8077,79.2645,0,U,62602,999,7901,.54974E-3,.14907E-3,0
STARLINK-32778,2025-008S,2026-06-06T02:58:02.485632,15.27586937,.00003213,42.9937,138.9749,271.2989,88.7825,0,U,62603,999,7908,.78880647E-3,.21512E-3,0
STARLINK-32710,2025-008T,2026-06-05T16:04:18.965280,15.27594050,.00011735,43.0041,140.7256,296.4754,63.5978,0,U,62604,999,7902,.66558627E-3,.18106E-3,0
STARLINK-32742,2025-008U,2026-06-05T16:09:50.151168,15.27622050,.00015467,43.0030,140.7532,275.7444,84.3231,0,U,62605,999,7907,.70140884E-3,.19114E-3,0
STARLINK-32783,2025-008V,2026-06-05T05:36:38.530656,15.27588764,.0001797,43.0003,143.4752,297.5644,62.5025,0,U,62606,999,7895,.489E-3,.13222E-3,0
STARLINK-32784,2025-008W,2026-06-05T05:14:23.292096,15.45767182,.0016448,42.9935,133.7869,138.0298,222.1824,0,U,62607,999,7912,.15632E-2,.78336E-3,0
STARLINK-32806,2025-014A,2026-06-03T12:45:00.508896,15.27619379,.00022401,43.0001,29.7866,246.9959,113.0656,0,U,62735,999,7638,.74418036E-3,.20298E-3,0
STARLINK-32329,2025-014B,2026-06-05T08:13:37.646112,15.27614436,.00018126,43.0048,19.2962,255.1246,104.9405,0,U,62736,999,7666,.55737773E-3,.15123E-3,0
STARLINK-32774,2025-014C,2026-06-05T17:21:13.140864,15.27576633,.00021069,43.0007,20.4558,264.0795,95.9816,0,U,62737,999,7668,.80418501E-3,.21931E-3,0
STARLINK-32802,2025-014D,2026-06-05T23:25:35.300928,15.27599555,.00012703,43.0016,15.4475,265.2370,94.8336,0,U,62738,999,7676,.15081584E-2,.41498E-3,0
STARLINK-32796,2025-014E,2026-06-06T00:00:02.999808,15.27552316,.00013778,43.0017,15.2843,280.8627,225.1015,0,U,62739,999,572,.22014895E-2,.60767E-3,0
STARLINK-32805,2025-014F,2026-06-05T07:29:26.259936,15.27599701,.00013164,42.9998,19.9352,275.7093,84.3608,0,U,62740,999,7665,.71204608E-3,.19395E-3,0
STARLINK-32770,2025-014G,2026-06-05T07:58:49.715904,15.27588130,.00014821,43.0027,19.2232,270.4693,89.5989,0,U,62741,999,7666,.64518134E-3,.17538E-3,0
STARLINK-32775,2025-014H,2026-06-05T08:15:29.052000,15.27585779,.00013702,43.0049,19.3090,269.7010,90.3685,0,U,62742,999,7666,.8081547E-3,.22047E-3,0
STARLINK-32800,2025-014J,2026-06-06T02:23:26.674656,15.27631917,.00021044,42.9994,22.4443,305.5173,54.5482,0,U,62743,999,7669,.95742474E-3,.2622E-3,0
STARLINK-32758,2025-014K,2026-06-05T08:14:46.960512,15.27587515,.00015091,43.0022,22.7689,281.1196,78.9486,0,U,62744,999,7662,.69998407E-3,.19054E-3,0
STARLINK-32746,2025-014L,2026-06-05T07:34:44.817600,15.27464132,.00007189,43.0012,19.0921,286.6765,73.4008,0,U,62745,999,7666,.28861848E-2,.79739E-3,0
STARLINK-32780,2025-014M,2026-06-05T07:27:34.092864,15.27631838,.00013687,42.9993,19.9202,54.2729,305.8250,0,U,62746,999,7665,.10172524E-2,.27881E-3,0
STARLINK-32765,2025-014N,2026-06-05T17:55:13.568448,15.27629057,.0000874,42.9997,17.1696,264.9016,95.1736,0,U,62747,999,7672,.74743066E-3,.20393E-3,0
STARLINK-32762,2025-014P,2026-06-05T07:59:58.708032,15.27593041,.00017772,43.0021,22.6874,263.2578,96.8071,0,U,62748,999,7662,.60981482E-3,.16563E-3,0
STARLINK-32761,2025-014Q,2026-06-04T21:04:35.281632,15.27586636,.00012479,43.0022,25.2930,266.1999,93.8710,0,U,62749,999,7655,.12461685E-2,.34196E-3,0
STARLINK-32763,2025-014R,2026-06-05T23:36:40.675104,15.27593247,.00015475,43.0028,15.5089,268.2172,91.8503,0,U,62750,999,7676,.73579092E-3,.20048E-3,0
